IRIDIUM 7               
1 24793U 97020B   25310.46912138  .00000569  00000+0  18904-3 0  9992
2 24793  86.3926 117.3117 0002190  81.0325 279.1120 14.36055767492318
IRIDIUM 5               
1 24795U 97020D   25311.14387437  .00005877  00000+0  46646-3 0  9999
2 24795  86.3921  17.7275 0104599 345.8932  13.9380 14.96010792506823
IRIDIUM 4               
1 24796U 97020E   25310.99008404  .00000545  00000+0  17749-3 0  9995
2 24796  86.3921 113.8739 0002175  87.0674 273.0772 14.36959607492977
IRIDIUM 914             
1 24836U 97030A   25311.00972421  .00000568  00000+0  17068-3 0  9992
2 24836  86.3905 122.0486 0003664  96.9700 263.1916 14.41009791627693
IRIDIUM 16              
1 24841U 97030F   25311.04535370  .00000520  00000+0  16290-3 0  9994
2 24841  86.4030 145.3175 0001791  21.9045 338.2230 14.38833273487548
IRIDIUM 911             
1 24842U 97030G   25311.05347583  .00000678  00000+0  17773-3 0  9994
2 24842  86.4450 143.9279 0013705 350.1752   9.9181 14.47821739495757
IRIDIUM 17              
1 24870U 97034B   25311.11959786  .00000535  00000+0  17059-3 0  9999
2 24870  86.3997 174.7041 0000449  80.5490 279.5759 14.37974563484124
IRIDIUM 920             
1 24871U 97034C   25311.07294657  .00000505  00000+0  14891-3 0  9992
2 24871  86.3983 153.6426 0010740 340.6361  19.4429 14.41675182487167
